places = [{"placeName":"Alaska","descrip":"#1: 24.50%","latitude":64.200844,"longitude":-149.493668},
{"placeName":"Alabama","descrip":"#2: 22.90%","latitude":32.31823,"longitude":-86.902298},
{"placeName":"Montana","descrip":"#3: 22.50%","latitude":46.679798,"longitude":-110.044777},
{"placeName":"Louisiana","descrip":"#4: 21.70%","latitude":30.984299,"longitude":-91.962334},
{"placeName":"Missouri","descrip":"#5: 21.50%","latitude":37.964252,"longitude":-91.831833},
{"placeName":"Arkansas","descrip":"#6: 20.30%","latitude":35.20105,"longitude":-91.831833},
{"placeName":"Wyoming","descrip":"#7: 18.80%","latitude":43.07597,"longitude":-107.290283},
{"placeName":"West Virgina","descrip":"#8: 18.60%","latitude":38.920139,"longitude":-80.181839},
{"placeName":"New Mexico","descrip":"#9: 18.50%","latitude":34.166328,"longitude":-106.026123},
{"placeName":"Tennessee","descrip":"#10: 18.40%","latitude":40.412682,"longitude":-90.837044},
{"placeName":"South Carolina","descrip":"#11: 17.70%","latitude":33.836082,"longitude":-81.163727},
{"placeName":"Oklahoma","descrip":"#12: 17.20%","latitude":35.007751,"longitude":-97.09288},
{"placeName":"Nevada","descrip":"#13: 16.70%","latitude":33.042099,"longitude":-96.372353},
{"placeName":"Idaho","descrip":"#14: 16.40%","latitude":43.491329,"longitude":-112.040268},
{"placeName":"Kentucky","descrip":"#15: 16.20%","latitude":37.822239,"longitude":-85.768242},
{"placeName":"Kansas","descrip":"#16: 16%","latitude":39.011902,"longitude":-98.484245},
{"placeName":"Arizona","descrip":"#17: 15.80%","latitude":34.048927,"longitude":-111.093735},
{"placeName":"Georgia","descrip":"#18: 15.40%","latitude":32.165623,"longitude":-82.900078},
{"placeName":"Indiana","descrip":"#19: 15.30%","latitude":40.273502,"longitude":-86.126976},
{"placeName":"Utah","descrip":"#20: 14%","latitude":39.41922,"longitude":-111.950684}]
